{"type": "FeatureCollection", "features": [ {"type": "Feature", "properties": {"norad_id": 43262, "name": "GAOFEN-1 04", "group": "resource", "lat": 16.820114222231886, "lon": -136.72229869548647, "alt_km": 641.3682443566213, "timestamp": "2025-12-08T23:34:03.627195+00:00", "meta": {"OBJECT_NAME": "GAOFEN-1 04", "OBJECT_ID": "2018-031D", "EPOCH": "2025-12-08T14:41:59.218080", "MEAN_MOTION": 14.76438122, "ECCENTRICITY": 0.00011565, "INCLINATION": 98.0814, "RA_OF_ASC_NODE": 40.4463, "ARG_OF_PERICENTER": 59.8972, "MEAN_ANOMALY": 300.2352, "EPHEMERIS_TYPE": 0, "CLASSIFICATION_TYPE": "U", "NORAD_CAT_ID": 43262, "ELEMENT_SET_NO": 999, "REV_AT_EPOCH": 41456, "BSTAR": 0.00027942001, "MEAN_MOTION_DOT": 1.892e-05, "MEAN_MOTION_DDOT": 0}, "tle": {"line1": "1 43262U 18031D   25342.61249095  .00001892  00000+0  27942-3 0  9998", "line2": "2 43262  98.0814  40.4463 0001156  59.8972 300.2352 14.76438122414566"}}, "geometry": {"type": "Point", "coordinates": [-136.72229869548647, 16.820114222231886]}}, {"type": "Feature", "properties": {"norad_id": 43437, "name": "SENTINEL-3B", "group": "resource", "lat": -76.20443039013871, "lon": 86.4119963078239, "alt_km": 811.0497241378671, "timestamp": "2025-12-08T23:34:03.627206+00:00", "meta": {"OBJECT_NAME": "SENTINEL-3B", "OBJECT_ID": "2018-039A", "EPOCH": "2025-12-08T15:31:22.485792", "MEAN_MOTION": 14.26740797, "ECCENTRICITY": 0.0001534, "INCLINATION": 98.627, "RA_OF_ASC_NODE": 47.8905, "ARG_OF_PERICENTER": 106.9432, "MEAN_ANOMALY": 253.1917, "EPHEMERIS_TYPE": 0, "CLASSIFICATION_TYPE": "U", "NORAD_CAT_ID": 43437, "ELEMENT_SET_NO": 999, "REV_AT_EPOCH": 39695, "BSTAR": 0.00015029362, "MEAN_MOTION_DOT": 3.2e-06, "MEAN_MOTION_DDOT": 0}, "tle": {"line1": "1 43437U 18039A   25342.64678803  .00000320  00000+0  15029-3 0  9994", "line2": "2 43437  98.6270  47.8905 0001534 106.9432 253.1917 14.26740797396953"}}, "geometry": {"type": "Point", "coordinates": [86.4119963078239, -76.20443039013871]}}, {"type": "Feature", "properties": {"norad_id": 43461, "name": "GAOFEN-5 01", "group": "resource", "lat": 4.695007267299127, "lon": 126.58168305749278, "alt_km": 695.0959929675928, "timestamp": "2025-12-08T23:34:03.627216+00:00", "meta": {"OBJECT_NAME": "GAOFEN-5 01", "OBJECT_ID": "2018-043A", "EPOCH": "2025-12-08T11:15:28.112832", "MEAN_MOTION": 14.60403389, "ECCENTRICITY": 0.00012489, "INCLINATION": 98.4319, "RA_OF_ASC_NODE": 305.3619, "ARG_OF_PERICENTER": 355.982, "MEAN_ANOMALY": 4.1369, "EPHEMERIS_TYPE": 0, "CLASSIFICATION_TYPE": "U", "NORAD_CAT_ID": 43461, "ELEMENT_SET_NO": 999, "REV_AT_EPOCH": 40385, "BSTAR": 0.0002228231, "MEAN_MOTION_DOT": 1.03e-05, "MEAN_MOTION_DDOT": 0}, "tle": {"line1": "1 43461U 18043A   25342.46907538  .00001030  00000+0  22282-3 0  9994", "line2": "2 43461  98.4319 305.3619 0001248 355.9820   4.1369 14.60403389403859"}}, "geometry": {"type": "Point", "coordinates": [126.58168305749278, 4.695007267299127]}}, {"type": "Feature", "properties": {"norad_id": 43484, "name": "GAOFEN-6", "group": "resource", "lat": -47.06796842961685, "lon": 55.852159788970205, "alt_km": 652.0137644067818, "timestamp": "2025-12-08T23:34:03.627227+00:00", "meta": {"OBJECT_NAME": "GAOFEN-6", "OBJECT_ID": "2018-048A", "EPOCH": "2025-12-08T14:01:29.320896", "MEAN_MOTION": 14.76555847, "ECCENTRICITY": 0.00132803, "INCLINATION": 97.8037, "RA_OF_ASC_NODE": 46.9907, "ARG_OF_PERICENTER": 76.0891, "MEAN_ANOMALY": 284.1796, "EPHEMERIS_TYPE": 0, "CLASSIFICATION_TYPE": "U", "NORAD_CAT_ID": 43484, "ELEMENT_SET_NO": 999, "REV_AT_EPOCH": 40526, "BSTAR": 0.00024538511, "MEAN_MOTION_DOT": 1.664e-05, "MEAN_MOTION_DDOT": 0}, "tle": {"line1": "1 43484U 18048A   25342.58436714  .00001664  00000+0  24539-3 0  9990", "line2": "2 43484  97.8037  46.9907 0013280  76.0891 284.1796 14.76555847405265"}}, "geometry": {"type": "Point", "coordinates": [55.852159788970205, -47.06796842961685]}}, {"type": "Feature", "properties": {"norad_id": 43585, "name": "GAOFEN-11 01", "group": "resource", "lat": -38.704188980930546, "lon": -139.82983381189433, "alt_km": 427.1884817668388, "timestamp": "2025-12-08T23:34:03.627237+00:00", "meta": {"OBJECT_NAME": "GAOFEN-11 01", "OBJECT_ID": "2018-063A", "EPOCH": "2025-12-08T14:52:23.310336", "MEAN_MOTION": 15.49044738, "ECCENTRICITY": 0.00045664, "INCLINATION": 97.156, "RA_OF_ASC_NODE": 45.5888, "ARG_OF_PERICENTER": 332.2202, "MEAN_ANOMALY": 27.8805, "EPHEMERIS_TYPE": 0, "CLASSIFICATION_TYPE": "U", "NORAD_CAT_ID": 43585, "ELEMENT_SET_NO": 999, "REV_AT_EPOCH": 41078, "BSTAR": 0.00034377871, "MEAN_MOTION_DOT": 0.00018565, "MEAN_MOTION_DDOT": 0}, "tle": {"line1": "1 43585U 18063A   25342.61971424  .00018565  00000+0  34378-3 0  9995", "line2": "2 43585  97.1560  45.5888 0004566 332.2202  27.8805 15.49044738410783"}}, "geometry": {"type": "Point", "coordinates": [-139.82983381189433, -38.704188980930546]}}, {"type": "Feature", "properties": {"norad_id": 43613, "name": "ICESAT-2", "group": "resource", "lat": -57.61697616740892, "lon": 56.557279231420715, "alt_km": 488.0159974914559, "timestamp": "2025-12-08T23:34:03.627248+00:00", "meta": {"OBJECT_NAME": "ICESAT-2", "OBJECT_ID": "2018-070A", "EPOCH": "2025-12-08T14:40:24.715488", "MEAN_MOTION": 15.28238837, "ECCENTRICITY": 0.00020887, "INCLINATION": 92.0045, "RA_OF_ASC_NODE": 239.6231, "ARG_OF_PERICENTER": 159.3412, "MEAN_ANOMALY": 200.7922, "EPHEMERIS_TYPE": 0, "CLASSIFICATION_TYPE": "U", "NORAD_CAT_ID": 43613, "ELEMENT_SET_NO": 999, "REV_AT_EPOCH": 40335, "BSTAR": 0.00061404714, "MEAN_MOTION_DOT": 0.00016903, "MEAN_MOTION_DDOT": 0}, "tle": {"line1": "1 43613U 18070A   25342.61139717  .00016903  00000+0  61405-3 0  9991", "line2": "2 43613  92.0045 239.6231 0002088 159.3412 200.7922 15.28238837403352"}}, "geometry": {"type": "Point", "coordinates": [56.557279231420715, -57.61697616740892]}}, {"type": "Feature", "properties": {"norad_id": 43719, "name": "HYSIS", "group": "resource", "lat": -39.87363755184126, "lon": 52.733124608827765, "alt_km": 640.3777915923165, "timestamp": "2025-12-08T23:34:03.627258+00:00", "meta": {"OBJECT_NAME": "HYSIS", "OBJECT_ID": "2018-096A", "EPOCH": "2025-12-08T14:00:18.499680", "MEAN_MOTION": 14.78629097, "ECCENTRICITY": 0.00015127, "INCLINATION": 98.0099, "RA_OF_ASC_NODE": 45.5815, "ARG_OF_PERICENTER": 62.1422, "MEAN_ANOMALY": 297.9942, "EPHEMERIS_TYPE": 0, "CLASSIFICATION_TYPE": "U", "NORAD_CAT_ID": 43719, "ELEMENT_SET_NO": 999, "REV_AT_EPOCH": 37925, "BSTAR": 0.00035113621, "MEAN_MOTION_DOT": 2.519e-05, "MEAN_MOTION_DDOT": 0}, "tle": {"line1": "1 43719U 18096A   25342.58354745  .00002519  00000+0  35114-3 0  9998", "line2": "2 43719  98.0099  45.5815 0001512  62.1422 297.9942 14.78629097379256"}}, "geometry": {"type": "Point", "coordinates": [52.733124608827765, -39.87363755184126]}}, {"type": "Feature", "properties": {"norad_id": 43783, "name": "KAZSTSAT", "group": "resource", "lat": -80.23089597478835, "lon": 67.84428420089475, "alt_km": 574.8153447394388, "timestamp": "2025-12-08T23:34:03.627268+00:00", "meta": {"OBJECT_NAME": "KAZSTSAT", "OBJECT_ID": "2018-099AB", "EPOCH": "2025-12-08T14:19:47.284320", "MEAN_MOTION": 14.99334294, "ECCENTRICITY": 0.00061342, "INCLINATION": 97.4556, "RA_OF_ASC_NODE": 17.9599, "ARG_OF_PERICENTER": 347.1722, "MEAN_ANOMALY": 12.9344, "EPHEMERIS_TYPE": 0, "CLASSIFICATION_TYPE": "U", "NORAD_CAT_ID": 43783, "ELEMENT_SET_NO": 999, "REV_AT_EPOCH": 38274, "BSTAR": 0.00024539393, "MEAN_MOTION_DOT": 2.944e-05, "MEAN_MOTION_DDOT": 0}, "tle": {"line1": "1 43783U 18099AB  25342.59707505  .00002944  00000+0  24539-3 0  9990", "line2": "2 43783  97.4556  17.9599 0006134 347.1722  12.9344 14.99334294382748"}}, "geometry": {"type": "Point", "coordinates": [67.84428420089475, -80.23089597478835]}}, {"type": "Feature", "properties": {"norad_id": 43831, "name": "SAUDISAT 5A", "group": "resource", "lat": -25.781298366133907, "lon": 46.8129846706235, "alt_km": 497.9906111811015, "timestamp": "2025-12-08T23:34:03.627278+00:00", "meta": {"OBJECT_NAME": "SAUDISAT 5A", "OBJECT_ID": "2018-102A", "EPOCH": "2025-12-08T14:14:11.038848", "MEAN_MOTION": 15.2557905, "ECCENTRICITY": 0.00118175, "INCLINATION": 97.3354, "RA_OF_ASC_NODE": 42.8643, "ARG_OF_PERICENTER": 88.8871, "MEAN_ANOMALY": 271.3721, "EPHEMERIS_TYPE": 0, "CLASSIFICATION_TYPE": "U", "NORAD_CAT_ID": 43831, "ELEMENT_SET_NO": 999, "REV_AT_EPOCH": 38659, "BSTAR": 0.0003728556, "MEAN_MOTION_DOT": 9.417e-05, "MEAN_MOTION_DDOT": 0}, "tle": {"line1": "1 43831U 18102A   25342.59318332  .00009417  00000+0  37286-3 0  9990", "line2": "2 43831  97.3354  42.8643 0011817  88.8871 271.3721 15.25579050386590"}}, "geometry": {"type": "Point", "coordinates": [46.8129846706235, -25.781298366133907]}}, {"type": "Feature", "properties": {"norad_id": 43833, "name": "SAUDISAT 5B", "group": "resource", "lat": 21.26896485292836, "lon": 43.09941726595582, "alt_km": 484.7568208898392, "timestamp": "2025-12-08T23:34:03.627289+00:00", "meta": {"OBJECT_NAME": "SAUDISAT 5B", "OBJECT_ID": "2018-102C", "EPOCH": "2025-12-08T14:01:51.916224", "MEAN_MOTION": 15.25933554, "ECCENTRICITY": 0.00125361, "INCLINATION": 97.3449, "RA_OF_ASC_NODE": 45.5871, "ARG_OF_PERICENTER": 91.4241, "MEAN_ANOMALY": 268.8434, "EPHEMERIS_TYPE": 0, "CLASSIFICATION_TYPE": "U", "NORAD_CAT_ID": 43833, "ELEMENT_SET_NO": 999, "REV_AT_EPOCH": 38670, "BSTAR": 0.00034818691, "MEAN_MOTION_DOT": 8.885e-05, "MEAN_MOTION_DDOT": 0}, "tle": {"line1": "1 43833U 18102C   25342.58462866  .00008885  00000+0  34819-3 0  9990", "line2": "2 43833  97.3449  45.5871 0012536  91.4241 268.8434 15.25933554386708"}}, "geometry": {"type": "Point", "coordinates": [43.09941726595582, 21.26896485292836]}}]}